NORAD_CAT_ID,OBJECT_NAME,OBJECT_TYPE,EPOCH,MEAN_MOTION,ECCENTRICITY,INCLINATION,RA_OF_ASC_NODE,ARG_OF_PERICENTER,MEAN_ANOMALY,BSTAR,MEAN_MOTION_DOT,MEAN_MOTION_DDOT,TLE_LINE0,TLE_LINE1,TLE_LINE2,SEMIMAJOR_AXIS,PERIOD,APOGEE,PERIGEE,DECAYED
54793.0,STARLINK-5433,PAYLOAD,2024-07-23 14:32:07,15.08847356,0.0001255,53.2157,166.0789,82.5416,277.5719,0.00013903,1.926e-05,0.0,0 STARLINK-5433,1 54793U 22175AM  24205.60563991  .00001926  00000-0  13903-3 0  9994,2 54793  53.2157 166.0789 0001255  82.5416 277.5719 15.08847356 90586,6917.858,95.437,540.591,538.855,0.0
54793.0,STARLINK-5433,PAYLOAD,2024-07-24 04:50:36,15.08826881,0.000149,53.2158,163.4029,85.0934,275.0229,-0.00014535,-2.6e-05,0.0,0 STARLINK-5433,1 54793U 22175AM  24206.20181474 -.00002600  00000-0 -14535-3 0  9997,2 54793  53.2158 163.4029 0001490  85.0934 275.0229 15.08826881 88518,6917.92,95.438,540.816,538.755,0.0
54793.0,STARLINK-5433,PAYLOAD,2024-07-24 20:44:27,15.08842223,0.0001426,53.2163,160.4252,105.8309,254.284,-6.1124e-05,-1.261e-05,0.0,0 STARLINK-5433,1 54793U 22175AM  24206.86421004 -.00001261  00000-0 -61124-4 0  9994,2 54793  53.2163 160.4252 0001426 105.8309 254.2840 15.08842223 88612,6917.874,95.437,540.725,538.752,0.0
54793.0,STARLINK-5433,PAYLOAD,2024-07-25 04:41:22,15.0885586,0.0001421,53.2157,158.9445,91.4516,268.6639,0.00044995,6.883e-05,0.0,0 STARLINK-5433,1 54793U 22175AM  24207.19540502  .00006883  00000-0  44995-3 0  9995,2 54793  53.2157 158.9445 0001421  91.4516 268.6639 15.08855860 88667,6917.832,95.437,540.68,538.714,0.0
54793.0,STARLINK-5433,PAYLOAD,2024-07-25 06:16:46,15.08860693,0.0001412,53.2154,158.6463,89.9958,270.1196,0.00081923,0.00012781,0.0,0 STARLINK-5433,1 54793U 22175AM  24207.26164580  .00012781  00000-0  81923-3 0  9997,2 54793  53.2154 158.6463 0001412  89.9958 270.1196 15.08860693 90831,6917.817,95.436,540.659,538.705,0.0
54793.0,STARLINK-5433,PAYLOAD,2024-07-25 20:35:14,15.08839495,0.0001375,53.2146,155.963,114.0728,246.0409,0.00011482,1.54e-05,0.0,0 STARLINK-5433,1 54793U 22175AM  24207.85781012  .00001540  00000-0  11482-3 0  9991,2 54793  53.2146 155.9630 0001375 114.0728 246.0409 15.08839495 88765,6917.882,95.438,540.698,538.796,0.0
54793.0,STARLINK-5433,PAYLOAD,2024-07-26 06:07:33,15.08850301,0.0001525,53.2161,154.1844,86.5743,273.5423,0.00058627,9.057e-05,0.0,0 STARLINK-5433,1 54793U 22175AM  24208.25524977  .00009057  00000-0  58627-3 0  9994,2 54793  53.2161 154.1844 0001525  86.5743 273.5423 15.08850301 90984,6917.849,95.437,540.769,538.659,0.0
54793.0,STARLINK-5433,PAYLOAD,2024-07-26 14:04:29,15.08847792,0.0001734,53.2149,152.6978,86.581,273.5381,0.00054839,8.452e-05,0.0,0 STARLINK-5433,1 54793U 22175AM  24208.58644989  .00008452  00000-0  54839-3 0  9995,2 54793  53.2149 152.6978 0001734  86.5810 273.5381 15.08847792 91038,6917.857,95.437,540.921,538.522,0.0
54793.0,STARLINK-5433,PAYLOAD,2024-07-27 20:16:48,15.08846826,0.000178,53.2182,147.0471,94.0461,266.0735,0.00020581,2.99e-05,0.0,0 STARLINK-5433,1 54793U 22175AM  24209.84500764  .00002990  00000-0  20581-3 0  9995,2 54793  53.2182 147.0471 0001780  94.0461 266.0735 15.08846826 91226,6917.86,95.437,540.956,538.493,0.0
54793.0,STARLINK-5433,PAYLOAD,2024-07-28 02:38:21,15.08832614,0.00014,53.2156,145.8574,97.2956,262.8195,-4.3428e-05,-9.79e-06,0.0,0 STARLINK-5433,1 54793U 22175AM  24210.10997243 -.00000979  00000-0 -43428-4 0  9991,2 54793  53.2156 145.8574 0001400  97.2956 262.8195 15.08832614 89108,6917.903,95.438,540.736,538.799,0.0
54793.0,STARLINK-5433,PAYLOAD,2024-07-28 12:10:40,15.08835803,0.0001325,53.2172,144.0732,93.8851,266.2293,-3.0688e-05,-7.76e-06,0.0,0 STARLINK-5433,1 54793U 22175AM  24210.50741495 -.00000776  00000-0 -30688-4 0  9990,2 54793  53.2172 144.0732 0001325  93.8851 266.2293 15.08835803 91322,6917.893,95.438,540.675,538.842,0.0
54793.0,STARLINK-5433,PAYLOAD,2024-07-29 02:29:06,15.08888888,0.0001146,53.2177,141.4028,78.23,281.8821,-0.0007817,-0.00012724,0.0,0 STARLINK-5433,1 54793U 22175AM  24211.10355107 -.00012724  00000-0 -78170-3 0  9991,2 54793  53.2177 141.4028 0001146  78.2300 281.8821 15.08888888 89253,6917.731,95.434,540.389,538.803,0.0
54793.0,STARLINK-5433,PAYLOAD,2024-07-29 12:01:27,15.08831483,0.0001557,53.218,139.6185,110.519,249.5969,0.00016876,2.398e-05,0.0,0 STARLINK-5433,1 54793U 22175AM  24211.50101540  .00002398  00000-0  16876-3 0  9994,2 54793  53.2180 139.6185 0001557 110.5190 249.5969 15.08831483 89313,6917.906,95.438,540.849,538.694,0.0
54793.0,STARLINK-5433,PAYLOAD,2024-07-29 19:58:23,15.08833272,0.0001546,53.2181,138.1316,110.5837,249.5321,0.00017101,2.434e-05,0.0,0 STARLINK-5433,1 54793U 22175AM  24211.83221680  .00002434  00000-0  17101-3 0  9991,2 54793  53.2181 138.1316 0001546 110.5837 249.5321 15.08833272 91526,6917.901,95.438,540.835,538.696,0.0
54793.0,STARLINK-5433,PAYLOAD,2024-07-30 02:19:55,15.08837675,0.000156,53.218,136.9427,111.9613,248.1545,0.00021225,3.091e-05,0.0,0 STARLINK-5433,1 54793U 22175AM  24212.09717567  .00003091  00000-0  21225-3 0  9996,2 54793  53.2180 136.9427 0001560 111.9613 248.1545 15.08837675 91565,6917.887,95.438,540.832,538.673,0.0
54793.0,STARLINK-5433,PAYLOAD,2024-07-30 18:13:46,15.08846699,0.0001585,53.2182,133.9694,113.0049,247.1111,0.00021485,3.134e-05,0.0,0 STARLINK-5433,1 54793U 22175AM  24212.75957142  .00003134  00000-0  21485-3 0  9990,2 54793  53.2182 133.9694 0001585 113.0049 247.1111 15.08846699 89508,6917.86,95.437,540.821,538.628,0.0
54793.0,STARLINK-5433,PAYLOAD,2024-07-30 22:59:57,15.08833574,0.0001413,53.2168,133.0763,111.1098,249.0045,0.00050401,7.741e-05,0.0,0 STARLINK-5433,1 54793U 22175AM  24212.95830061  .00007741  00000-0  50401-3 0  9990,2 54793  53.2168 133.0763 0001413 111.1098 249.0045 15.08833574 91691,6917.9,95.438,540.743,538.788,0.0
54793.0,STARLINK-5433,PAYLOAD,2024-07-31 02:10:42,15.08853573,0.000127,53.2155,132.4797,99.1673,260.9463,0.00021211,3.091e-05,0.0,0 STARLINK-5433,1 54793U 22175AM  24213.09076846  .00003091  00000-0  21211-3 0  9990,2 54793  53.2155 132.4797 0001270  99.1673 260.9463 15.08853573 91712,6917.839,95.437,540.582,538.825,0.0
54793.0,STARLINK-5433,PAYLOAD,2024-07-31 22:50:44,15.08837838,0.0001496,53.2167,128.6148,90.3,269.8164,1.6926e-05,-1.9e-07,0.0,0 STARLINK-5433,1 54793U 22175AM  24213.95189875 -.00000019  00000-0  16926-4 0  9998,2 54793  53.2167 128.6148 0001496  90.3000 269.8164 15.08837838 91845,6917.887,95.438,540.787,538.717,0.0
54793.0,STARLINK-5433,PAYLOAD,2024-08-01 02:01:30,15.08840789,0.0001275,53.2156,128.0195,94.6355,265.4783,1.1892e-05,-9.9e-07,0.0,0 STARLINK-5433,1 54793U 22175AM  24214.08437608 -.00000099  00000-0  11892-4 0  9998,2 54793  53.2156 128.0195 0001275  94.6355 265.4783 15.08840789 89704,6917.878,95.438,540.625,538.861,0.0
54793.0,STARLINK-5433,PAYLOAD,2024-08-01 11:33:48,15.08843281,0.0001251,53.2155,126.235,87.8434,272.2701,7.7761e-05,9.5e-06,0.0,0 STARLINK-5433,1 54793U 22175AM  24214.48181494  .00000950  00000-0  77761-4 0  9993,2 54793  53.2155 126.2350 0001251  87.8434 272.2701 15.08843281 91925,6917.87,95.437,540.601,538.87,0.0
54793.0,STARLINK-5433,PAYLOAD,2024-08-01 22:41:30,15.0885307,0.0001484,53.2158,124.1551,66.8309,293.2839,0.00022886,3.357e-05,0.0,0 STARLINK-5433,1 54793U 22175AM  24214.94549034  .00003357  00000-0  22886-3 0  9993,2 54793  53.2158 124.1551 0001484  66.8309 293.2839 15.08853070 91993,6917.84,95.437,540.732,538.679,0.0
54793.0,STARLINK-5433,PAYLOAD,2024-08-02 20:56:54,15.08840882,0.000137,53.2159,119.9899,105.8463,254.268,0.00010513,1.386e-05,0.0,0 STARLINK-5433,1 54793U 22175AM  24215.87285679  .00001386  00000-0  10513-3 0  9992,2 54793  53.2159 119.9899 0001370 105.8463 254.2680 15.08840882 89973,6917.878,95.437,540.69,538.795,0.0
54793.0,STARLINK-5433,PAYLOAD,2024-08-02 22:32:17,15.08840398,0.0001489,53.2159,119.6946,114.4031,245.7117,8.7144e-05,1.099e-05,0.0,0 STARLINK-5433,1 54793U 22175AM  24215.93909687  .00001099  00000-0  87144-4 0  9997,2 54793  53.2159 119.6946 0001489 114.4031 245.7117 15.08840398 92146,6917.879,95.438,540.774,538.714,0.0
54793.0,STARLINK-5433,PAYLOAD,2024-08-03 00:07:41,15.08838807,0.000123,53.2156,119.3938,102.147,257.966,7.5223e-05,9.09e-06,0.0,0 STARLINK-5433,1 54793U 22175AM  24216.00533794  .00000909  00000-0  75223-4 0  9992,2 54793  53.2156 119.3938 0001230 102.1470 257.9660 15.08838807 92157,6917.884,95.438,540.6,538.898,0.0
54793.0,STARLINK-5433,PAYLOAD,2024-08-03 22:23:05,15.08845593,0.0001533,53.2159,115.235,94.1026,266.0141,-6.6017e-05,-1.339e-05,0.0,0 STARLINK-5433,1 54793U 22175AM  24216.93269734 -.00001339  00000-0 -66017-4 0  9995,2 54793  53.2159 115.2350 0001533  94.1026 266.0141 15.08845593 92296,6917.863,95.437,540.789,538.668,0.0
54793.0,STARLINK-5433,PAYLOAD,2024-08-03 23:58:28,15.08844419,0.000137,53.216,114.9361,99.6944,260.4203,9.9535e-05,1.297e-05,0.0,0 STARLINK-5433,1 54793U 22175AM  24216.99893790  .00001297  00000-0  99535-4 0  9998,2 54793  53.2160 114.9361 0001370  99.6944 260.4203 15.08844419 90149,6917.867,95.437,540.68,538.784,0.0
54793.0,STARLINK-5433,PAYLOAD,2024-08-04 22:13:51,15.08851728,0.0001341,53.216,110.7741,102.8446,257.2696,0.00034735,5.246e-05,0.0,0 STARLINK-5433,1 54793U 22175AM  24217.92629502  .00005246  00000-0  34735-3 0  9998,2 54793  53.2160 110.7741 0001341 102.8446 257.2696 15.08851728 92443,6917.845,95.437,540.637,538.782,0.0
54793.0,STARLINK-5433,PAYLOAD,2024-08-04 23:49:14,15.0885601,0.0001302,53.216,110.4784,99.3216,260.7923,0.00040858,6.223e-05,0.0,0 STARLINK-5433,1 54793U 22175AM  24217.99253329  .00006223  00000-0  40858-3 0  9994,2 54793  53.2160 110.4784 0001302  99.3216 260.7923 15.08856010 90291,6917.831,95.437,540.597,538.796,0.0
54793.0,STARLINK-5433,PAYLOAD,2024-08-05 20:29:16,15.08826214,0.0001419,53.2169,106.6104,88.1247,271.9907,-0.00027035,-4.586e-05,0.0,0 STARLINK-5433,1 54793U 22175AM  24218.85366469 -.00004586  00000-0 -27035-3 0  9994,2 54793  53.2169 106.6104 0001419  88.1247 271.9907 15.08826214 90426,6917.923,95.438,540.769,538.806,0.0
